NORAD_CAT_ID,OBJECT_NAME,OBJECT_TYPE,EPOCH,MEAN_MOTION,ECCENTRICITY,INCLINATION,RA_OF_ASC_NODE,ARG_OF_PERICENTER,MEAN_ANOMALY,BSTAR,MEAN_MOTION_DOT,MEAN_MOTION_DDOT,TLE_LINE0,TLE_LINE1,TLE_LINE2,SEMIMAJOR_AXIS,PERIOD,APOGEE,PERIGEE,DECAYED
49146.0,STARLINK-3116,PAYLOAD,2021-11-30 10:00:00,15.69729383,0.0003641,69.9985,269.6046,280.0474,65.9285,-0.0002031,-0.00024369,0.0,0 STARLINK-3116,1 49146U 21082S   21334.41667824 -.00024369  00000-0 -20310-3 0  9993,2 49146  69.9985 269.6046 0003641 280.0474  65.9285 15.69729383  3689,6737.808000000001,91.736,362.127,357.22,0.0
49146.0,STARLINK-3116,PAYLOAD,2021-11-30 22:00:00,15.69760116,0.000363,69.999,268.199,274.6077,15.9959,-0.00017489,-0.00021048,0.0,0 STARLINK-3116,1 49146U 21082S   21334.91667824 -.00021048  00000-0 -17489-3 0  9992,2 49146  69.9990 268.1990 0003630 274.6077  15.9959 15.69760116 13484,6737.72,91.734,362.031,357.14,0.0
49146.0,STARLINK-3116,PAYLOAD,2021-12-01 14:00:01,15.69731103,0.0003394,69.999,266.3247,275.6704,181.2082,-3.3999e-05,-4.266e-05,0.0,0 STARLINK-3116,1 49146U 21082S   21335.58334491 -.00004266  00000-0 -33999-4 0  9995,2 49146  69.9990 266.3247 0003394 275.6704 181.2082 15.69731103  3694,6737.803000000001,91.735,361.955,357.38199999999995,0.0
49146.0,STARLINK-3116,PAYLOAD,2021-12-01 22:00:00,15.69756153,0.0003317,69.9996,265.3878,274.4121,265.5605,-3.0282e-05,-3.826e-05,0.0,0 STARLINK-3116,1 49146U 21082S   21335.91667824 -.00003826  00000-0 -30282-4 0  9994,2 49146  69.9996 265.3878 0003317 274.4121 265.5605 15.69756153 13638,6737.732,91.734,361.832,357.362,0.0
49146.0,STARLINK-3116,PAYLOAD,2021-12-02 14:00:01,15.69725223,0.0003468,69.9994,263.5136,273.4102,72.8531,8.902899999999999e-05,0.00010419,0.0,0 STARLINK-3116,1 49146U 21082S   21336.58334491  .00010419  00000-0  89029-4 0  9996,2 49146  69.9994 263.5136 0003468 273.4102  72.8531 15.69725223  3683,6737.82,91.736,362.022,357.349,0.0
49146.0,STARLINK-3116,PAYLOAD,2021-12-02 22:00:00,15.697609,0.0003568,69.9995,262.5768,273.7003,155.6482,-0.00023851,-0.00028603,0.0,0 STARLINK-3116,1 49146U 21082S   21336.91667824 -.00028603  00000-0 -23851-3 0  9998,2 49146  69.9995 262.5768 0003568 273.7003 155.6482 15.69760900  3662,6737.718000000003,91.734,361.987,357.17900000000014,0.0
49146.0,STARLINK-3116,PAYLOAD,2021-12-03 06:00:00,15.69745626,0.0003458,69.9993,261.6398,279.6603,232.812,-0.00040296,-0.00048035,0.0,0 STARLINK-3116,1 49146U 21082S   21337.25001157 -.00048035  00000-0 -40296-3 0  9990,2 49146  69.9993 261.6398 0003458 279.6603 232.8120 15.69745626 13844,6737.762,91.735,361.957,357.297,0.0
49146.0,STARLINK-3116,PAYLOAD,2021-12-03 14:00:01,15.6967218,0.0003278,69.9996,260.7026,274.2307,321.3609,0.00051501,0.00061522,0.0,0 STARLINK-3116,1 49146U 21082S   21337.58334491  .00061522  00000-0  51501-3 0  9991,2 49146  69.9996 260.7026 0003278 274.2307 321.3609 15.69672180  3688,6737.972,91.739,362.046,357.62800000000016,0.0
49146.0,STARLINK-3116,PAYLOAD,2021-12-03 22:00:00,15.6974114,0.000332,70.0,259.7658,273.2227,45.4192,-0.00019266,-0.0002314,0.0,0 STARLINK-3116,1 49146U 21082S   21337.91667824 -.00023140  00000-0 -19266-3 0  9995,2 49146  70.0000 259.7658 0003320 273.2227  45.4192 15.69741140 13959,6737.775,91.735,361.877,357.403,0.0
49146.0,STARLINK-3116,PAYLOAD,2021-12-04 06:00:00,15.6972303,0.0003313,69.9997,258.8287,278.8118,122.9412,0.00047165,0.00056409,0.0,0 STARLINK-3116,1 49146U 21082S   21338.25001157  .00056409  00000-0  47165-3 0  9995,2 49146  69.9997 258.8287 0003313 278.8118 122.9412 15.69723030  3718,6737.826,91.736,361.924,357.459,0.0
49146.0,STARLINK-3116,PAYLOAD,2021-12-04 12:00:00,15.69749691,0.0003219,69.9997,258.1262,273.7496,100.342,9.0981e-05,0.00010662,0.0,0 STARLINK-3116,1 49146U 21082S   21338.50001157  .00010662  00000-0  90981-4 0  9999,2 49146  69.9997 258.1262 0003219 273.7496 100.3420 15.69749691 14040,6737.75,91.734,361.784,357.446,0.0
49146.0,STARLINK-3116,PAYLOAD,2021-12-04 20:00:01,15.69789938,0.0003236,69.9997,257.1894,270.906,186.3096,3.8824e-05,4.433e-05,0.0,0 STARLINK-3116,1 49146U 21082S   21338.83334491  .00004433  00000-0  38824-4 0  9992,2 49146  69.9997 257.1894 0003236 270.9060 186.3096 15.69789938  3730,6737.635,91.732,361.68,357.32,0.0
49146.0,STARLINK-3116,PAYLOAD,2021-12-05 06:00:02,15.69774007,0.0003359,69.9992,256.0181,278.2399,12.9969,0.00034787,0.00041564,0.0,0 STARLINK-3116,1 49146U 21082S   21339.25002315  .00041564  00000-0  34787-3 0  9995,2 49146  69.9992 256.0181 0003359 278.2399  12.9969 15.69774007 14167,6737.681,91.733,361.809,357.282,0.0
49146.0,STARLINK-3116,PAYLOAD,2021-12-05 14:00:01,15.69757638,0.0003416,69.9992,255.081,270.9396,103.4148,-6.8808e-05,-8.421e-05,0.0,0 STARLINK-3116,1 49146U 21082S   21339.58334491 -.00008421  00000-0 -68808-4 0  9993,2 49146  69.9992 255.0810 0003416 270.9396 103.4148 15.69757638 14217,6737.727,91.734,361.894,357.291,0.0
49146.0,STARLINK-3116,PAYLOAD,2021-12-05 22:00:00,15.69771738,0.000355,69.9994,254.144,272.0031,185.4801,-0.00023036,-0.00027648,0.0,0 STARLINK-3116,1 49146U 21082S   21339.91667824 -.00027648  00000-0 -23036-3 0  9994,2 49146  69.9994 254.1440 0003550 272.0031 185.4801 15.69771738  3688,6737.687,91.733,361.944,357.16,0.0
49146.0,STARLINK-3116,PAYLOAD,2021-12-06 14:00:01,15.69721628,0.0003617,69.9991,252.2703,270.5018,353.3587,0.00011464,0.0001348,0.0,0 STARLINK-3116,1 49146U 21082S   21340.58335648  .00013480  00000-0  11464-3 0  9994,2 49146  69.9991 252.2703 0003617 270.5018 353.3587 15.69721628 14376,6737.83,91.736,362.133,357.2580000000001,0.0
49146.0,STARLINK-3116,PAYLOAD,2021-12-06 22:00:00,15.69753738,0.0003744,69.9989,251.3336,271.3738,75.5131,-0.00033718,-0.00040282,0.0,0 STARLINK-3116,1 49146U 21082S   21340.91667824 -.00040282  00000-0 -33718-3 0  9993,2 49146  69.9989 251.3336 0003744 271.3738  75.5131 15.69753738  3692,6737.739000000001,91.734,362.126,357.081,0.0
49146.0,STARLINK-3116,PAYLOAD,2021-12-07 14:00:01,15.69712688,0.0003751,69.9982,249.4595,269.4828,243.6499,0.00071694,0.00086132,0.0,0 STARLINK-3116,1 49146U 21082S   21341.58334491  .00086132  00000-0  71694-3 0  9995,2 49146  69.9982 249.4595 0003751 269.4828 243.6499 15.69712688  3689,6737.856,91.737,362.24800000000016,357.194,0.0
49146.0,STARLINK-3116,PAYLOAD,2021-12-07 22:00:00,15.69785875,0.00037,69.9985,248.5225,270.7814,325.4661,-0.00023555,-0.00028281,0.0,0 STARLINK-3116,1 49146U 21082S   21341.91667824 -.00028281  00000-0 -23555-3 0  9997,2 49146  69.9985 248.5225 0003700 270.7814 325.4661 15.69785875 14585,6737.647,91.732,362.005,357.019,0.0
49146.0,STARLINK-3116,PAYLOAD,2021-12-08 14:00:01,15.69680654,0.0003377,69.9983,246.6487,268.432,134.0972,0.00077627,0.00093227,0.0,0 STARLINK-3116,1 49146U 21082S   21342.58334491  .00093227  00000-0  77627-3 0  9991,2 49146  69.9983 246.6487 0003377 268.4320 134.0972 15.69680654 14687,6737.948,91.738,362.088,357.537,0.0
49146.0,STARLINK-3116,PAYLOAD,2021-12-08 22:00:00,15.69875753,0.0003406,69.9992,245.7117,273.0595,212.5127,-0.0031015,-0.00357029,0.0,0 STARLINK-3116,1 49146U 21082S   21342.91667824 -.00357029  00000-0 -31015-2 0  9992,2 49146  69.9992 245.7117 0003406 273.0595 212.5127 15.69875753 14732,6737.389,91.727,361.549,356.96,0.0
49146.0,STARLINK-3116,PAYLOAD,2021-12-09 06:00:00,15.69741495,0.0003421,69.9976,244.7748,275.0979,293.6114,5.689e-05,6.582e-05,0.0,0 STARLINK-3116,1 49146U 21082S   21343.25001157  .00006582  00000-0  56890-4 0  9994,2 49146  69.9976 244.7748 0003421 275.0979 293.6114 15.69741495 14784,6737.774,91.735,361.944,357.334,0.0
49146.0,STARLINK-3116,PAYLOAD,2021-12-09 20:24:27,15.69750295,0.0003367,69.9981,243.0873,271.1492,88.9317,8.915299999999999e-05,0.00010444,0.0,0 STARLINK-3116,1 49146U 21082S   21343.85032110  .00010444  00000-0  89153-4 0  9993,2 49146  69.9981 243.0873 0003367 271.1492  88.9317 15.69750295 14875,6737.748000000001,91.734,361.882,357.345,0.0
49146.0,STARLINK-3116,PAYLOAD,2021-12-10 14:00:01,15.69756038,0.000324,69.9981,241.0267,267.7478,273.5083,0.00016436,0.00019459,0.0,0 STARLINK-3116,1 49146U 21082S   21344.58334491  .00019459  00000-0  16436-3 0  9999,2 49146  69.9981 241.0267 0003240 267.7478 273.5083 15.69756038 14991,6737.732,91.734,361.78,357.414,0.0
49146.0,STARLINK-3116,PAYLOAD,2021-12-10 22:00:00,15.697506900000002,0.0003101,69.9983,240.0899,271.2648,353.142,-0.00039234,-0.00046788,0.0,0 STARLINK-3116,1 49146U 21082S   21344.91667824 -.00046788  00000-0 -39234-3 0  9993,2 49146  69.9983 240.0899 0003101 271.2648 353.1420 15.69750690 15054,6737.746999999999,91.734,361.702,357.523,0.0
49146.0,STARLINK-3116,PAYLOAD,2021-12-11 14:00:01,15.69699711,0.0003111,69.9978,238.2156,266.7998,163.8329,0.00071509,0.00085851,0.0,0 STARLINK-3116,1 49146U 21082S   21345.58334491  .00085851  00000-0  71509-3 0  9991,2 49146  69.9978 238.2156 0003111 266.7998 163.8329 15.69699711 15152,6737.893,91.737,361.854,357.662,0.0
49146.0,STARLINK-3116,PAYLOAD,2021-12-11 22:00:00,15.69757171,0.0003131,69.9981,237.2785,270.8732,242.8667,-8.697e-05,-0.00010584,0.0,0 STARLINK-3116,1 49146U 21082S   21345.91667824 -.00010584  00000-0 -86970-4 0  9999,2 49146  69.9981 237.2785 0003131 270.8732 242.8667 15.69757171  3680,6737.729,91.734,361.703,357.4840000000001,0.0
49146.0,STARLINK-3116,PAYLOAD,2021-12-12 04:00:00,15.69366505,0.0003237,69.9992,236.5759,268.7293,217.4088,0.004464,0.00561068,0.0,0 STARLINK-3116,1 49146U 21082S   21346.16667824  .00561068  00000-0  44640-2 0  9999,2 49146  69.9992 236.5759 0003237 268.7293 217.4088 15.69366505 15247,6738.847,91.757,362.893,358.531,0.0
49146.0,STARLINK-3116,PAYLOAD,2021-12-12 14:00:01,15.69729631,0.0003013,69.9983,235.4046,267.4868,52.5377,0.00075367,0.00090657,0.0,0 STARLINK-3116,1 49146U 21082S   21346.58334491  .00090657  00000-0  75367-3 0  9998,2 49146  69.9983 235.4046 0003013 267.4868  52.5377 15.69729631 15310,6737.808000000001,91.736,361.703,357.642,0.0
